HULIANWANG DIGUI-153    
1 67529U 26013H   26043.26406470 -.00000125  00000+0  16334-4 0  9994
2 67529  50.0072  89.4374 0001301 322.0954  37.9849 13.79514550  3339
HULIANWANG DIGUI-154    
1 67530U 26013J   26043.33376307  .00000033  00000+0  16974-3 0  9995
2 67530  50.0011  89.1466 0004223 185.3162 174.7688 13.79360636  3346
CZ-12 R/B               
1 67531U 26013K   26044.30903653 -.00000106  00000+0  24917-4 0  9993
2 67531  49.9940  81.6091 0069052 213.8608 145.7882 14.14458025  3534
STARLINK-36587          
1 67532U 26014A   26047.21679296  .00471091  00000+0  23300-2 0  9998
2 67532  97.2833 291.0987 0002019 140.2557 219.8859 15.80814460  5193
STARLINK-36417          
1 67533U 26014B   26047.19071805  .00270717  00000+0  17597-2 0  9991
2 67533  97.2833 290.9803 0002021 123.8754 236.2704 15.75179352  5187
STARLINK-36576          
1 67534U 26014C   26047.25002315 -.00152653  00000+0 -10378-2 0  9999
2 67534  97.2845 291.1298 0002075 100.3986  79.7896 15.75257525  5246
STARLINK-36574          
1 67535U 26014D   26047.21411565  .00322103  00000+0  16217-2 0  9992
2 67535  97.2831 291.1028 0001803 137.1595 222.9814 15.80806062  5193
STARLINK-36572          
1 67536U 26014E   26047.24048161  .00140237  00000+0  92668-3 0  9995
2 67536  97.2840 291.0656 0001559 118.1509 241.9914 15.75165839  5198
STARLINK-36561          
1 67537U 26014F   26047.18295431  .00201695  00000+0  13221-2 0  9996
2 67537  97.2841 290.9890 0001882  93.9014 266.2467 15.75177708  5188
STARLINK-36397          
1 67538U 26014G   26047.18683697  .00256953  00000+0  16744-2 0  9992
2 67538  97.2838 290.9847 0002078  98.1306 262.0195 15.75160403  5182
STARLINK-36573          
1 67539U 26014H   26046.57703360  .00514482  00000+0  25211-2 0  9998
2 67539  97.2830 290.4370 0002230 167.0199 193.1127 15.80907014  5099
STARLINK-36585          
1 67540U 26014J   26047.24225185  .00285773  00000+0  18546-2 0  9990
2 67540  97.2846 291.0599 0003036  47.9135 312.2388 15.75173704  5198
